#aV2010  8 16  0  0   .00000000      96 DD+AD WGS84 FIT  NGA
## 1597  86400.00000000   900.00000000 55424  .0000000000000
+   32     1  2  3  4  5  6  7  8  9 10 11 12 13 14 15 16 17
+         18 19 20 21 22 23 24 25 26 27 28 29 30 31 32  0  0
+          0  0  0  0  0  0  0  0  0  0  0  0  0  0  0  0  0
+          0  0  0  0  0  0  0  0  0  0  0  0  0  0  0  0  0
+          0  0  0  0  0  0  0  0  0  0  0  0  0  0  0  0  0
++         0  0  0  0  0  0  0  0  0  0  0  0  0  0  0  0  0
++         0  0  0  0  0  0  0  0  0  0  0  0  0  0  0  0  0
++         0  0  0  0  0  0  0  0  0  0  0  0  0  0  0  0  0
++         0  0  0  0  0  0  0  0  0  0  0  0  0  0  0  0  0
++         0  0  0  0  0  0  0  0  0  0  0  0  0  0  0  0  0
%c cc cc ccc ccc cccc cccc cccc cccc ccccc ccccc ccccc ccccc
%c cc cc ccc ccc cccc cccc cccc cccc ccccc ccccc ccccc ccccc
%f  0.0000000  0.000000000  0.00000000000  0.000000000000000
%f  0.0000000  0.000000000  0.00000000000  0.000000000000000
%i    0    0    0    0      0      0      0      0         0
%i    0    0    0    0      0      0      0      0         0
/*      NGA, ST. LOUIS,MO.                                  
/*   EPHEMERIS COMPUTED FROM  3 DAYS OF DATA                
/* CCCCCCCCCCCCCCCCCCCCCCCCCCCCCCCCCCCCCCCCCCCCCCCCCCCCCCCCC
/* CCCCCCCCCCCCCCCCCCCCCCCCCCCCCCCCCCCCCCCCCCCCCCCCCCCCCCCCC
*  2010  8 16 10  0   .00000000                                                 
P  1  -9691.420797 -11733.651142 -21888.980893   -152.476042                    
V  1  22770.195651 -15408.849412  -1707.684088      -.039796                    
P  2  13440.436021  16119.911722 -16547.400350    281.223644                    
V  2   -252.732907  20972.345497  19769.726106       .029257                    
P  3 -24905.879815  -9713.405813  -1252.381267    595.668267                    
V  3   2240.476976  -2967.680680 -30738.097329       .049625                    
P  4   6762.227448  24532.175338  -7106.701592    147.777840                    
V  4  -3017.771613   9121.054021  29700.809352       .084382                    
P  5  19410.635905   2279.208468 -18038.230704    -24.670051                    
V  5 -18100.038886  14051.820037 -17623.682689      -.042467                    
P  6 -22442.979578 -13506.902622  -4734.833325    531.852796                    
V  6   7063.965959   -671.693558 -30297.301203      -.149114                    
P  7  -6697.511173  22727.673913 -11817.816677     -1.938800                    
V  7  -3108.345161 -14878.959969 -27059.840755       .000065                    
P  8   -325.586448  26256.452241   -132.468288      6.438595                    
V  8  -2226.548336   -180.525986 -32837.726045       .000101                    
P  9  14000.415307  -4814.028496  21504.175111     24.637447                    
V  9   2943.404315  28417.596733   4358.068708       .023073                    
P 10   9054.980082  12593.368621 -21751.044497    -49.802330                    
V 10 -23004.305305  14526.691366   -827.586689      -.009551                    
P 11 -13725.315428  10342.932729  19918.482416    -82.873506                    
V 11  -9132.381573 -24704.797181   6815.399575      -.025714                    
P 12  23473.238764 -11202.903027   4996.026349    -82.610264                    
V 12  -3912.427770   5570.163432  31249.079498       .038641                    
P 13 -10267.854280  10740.963325 -22156.146635    299.630991                    
V 13 -23793.604348 -14198.121596   4124.072745      -.007767                    
P 14 -10486.133298 -18280.717040  16398.078837     78.996722                    
V 14  18454.472858   8872.189166  21748.060379       .039133                    
P 15  24406.737525   3702.901118   9983.151442   -223.128202                    
V 15  10292.565860   7765.696046 -27965.678257       .057080                    
P 16 -15441.566713  -6837.153654 -20536.599656    -99.687935                    
V 16  21684.075143 -14441.296622 -11208.443788      -.034904                    
P 17   7365.924472  18172.778151  18118.839077    166.775179                    
V 17 -20773.652357  -9297.405758  17664.281065       .016088                    
P 18  13819.922509 -19219.209565  11939.367961     87.315008                    
V 18  14301.295881  -5313.472424 -26109.635538       .022994                    
P 19 -23809.165565  -5279.588880  10926.173127    -58.071252                    
V 19 -10634.908751  -8983.914634 -27247.095125      -.030238                    
P 20 -22864.554070  12851.147191   3866.615688     52.120029                    
V 20   2047.026509  -5895.266773  30712.341711      -.003936                    
P 21   4969.795672 -24236.764215  -8407.539232    -81.400621                    
V 21   4593.594633  11162.796804 -28908.030130      -.026691                    
P 22   2221.823023 -18269.180197  19290.268252    165.194197                    
V 22  21386.312430 -11563.550480 -13631.921355      -.007170                    
P 23 -19130.312765   4291.140749 -18087.591853    358.290753                    
V 23 -19764.055364 -11427.712794  17879.809201      -.016963                    
P 24 -11385.978142 -18497.268281  15550.422178    313.314543                    
V 24   1785.435624 -19545.105713 -21803.737940       .031641                    
P 25  19515.873733 -17418.602997  -4673.557162    -32.876785                    
V 25   6426.967352  -1081.577885  30994.324719      -.086936                    
P 26  23611.985577  12454.440299   1695.272544    -99.386248                    
V 26   1650.132711   2757.193210 -32021.579800      -.065497                    
P 27  15265.369355    864.412070  22409.931932    180.171394                    
V 27   3014.205918  26591.781874  -2989.065472       .034296                    
P 28  -5322.039349  18363.751980  18793.890210     -7.075006                    
V 28 -20255.532778  10877.784532 -17079.723103       .013485                    
P 29  11246.223226 -10899.075827 -21360.756962    142.331746                    
V 29  23837.792552  13379.240428   5741.535459       .027693                    
P 30  17902.007593 -18661.577591  -6370.341805    269.839014                    
V 30   7760.600680  -2226.859330  30311.366053       .032925                    
P 31  -7693.861953 -23487.767955  -9282.553410    -16.799316                    
V 31   1520.019245 -12225.263149  29207.066729       .028317                    
P 32 -24049.982367   5367.431417   9762.203683    -62.607248                    
V 32   9206.802411  -8249.454955  28531.967341      -.088519                    
EOF
